CCSDS_OMM_VERS = 2.0
CREATION_DATE  = 
ORIGINATOR     = 

OBJECT_NAME    = STARLINK-36551
OBJECT_ID      = 2026-012A
CENTER_NAME    = EARTH
REF_FRAME      = TEME
TIME_SYSTEM    = UTC
MEAN_ELEMENT_THEORY = SGP/SGP4

EPOCH          = 2026-02-08T22:00:03.000096
MEAN_MOTION    = 15.60239890
ECCENTRICITY   = .00015981
INCLINATION    = 42.9993
RA_OF_ASC_NODE = 118.3795
ARG_OF_PERICENTER = 276.9824
MEAN_ANOMALY   = 108.9085

EPHEMERIS_TYPE = 0
CLASSIFICATION_TYPE = U
NORAD_CAT_ID   = 67493
ELEMENT_SET_NO = 999
REV_AT_EPOCH   = 444
BSTAR          = -.25742096E-1
MEAN_MOTION_DOT = -.1907142E-1
MEAN_MOTION_DDOT = 0

CCSDS_OMM_VERS = 2.0
CREATION_DATE  = 
ORIGINATOR     = 

OBJECT_NAME    = STARLINK-36396
OBJECT_ID      = 2026-012B
CENTER_NAME    = EARTH
REF_FRAME      = TEME
TIME_SYSTEM    = UTC
MEAN_ELEMENT_THEORY = SGP/SGP4

EPOCH          = 2026-02-08T22:00:03.000096
MEAN_MOTION    = 15.50709509
ECCENTRICITY   = .00015716
INCLINATION    = 43.0002
RA_OF_ASC_NODE = 119.0945
ARG_OF_PERICENTER = 344.5853
MEAN_ANOMALY   = 111.8406

EPHEMERIS_TYPE = 0
CLASSIFICATION_TYPE = U
NORAD_CAT_ID   = 67494
ELEMENT_SET_NO = 999
REV_AT_EPOCH   = 444
BSTAR          = -.36404284E-2
MEAN_MOTION_DOT = -.209277E-2
MEAN_MOTION_DDOT = 0

CCSDS_OMM_VERS = 2.0
CREATION_DATE  = 
ORIGINATOR     = 

OBJECT_NAME    = STARLINK-36550
OBJECT_ID      = 2026-012C
CENTER_NAME    = EARTH
REF_FRAME      = TEME
TIME_SYSTEM    = UTC
MEAN_ELEMENT_THEORY = SGP/SGP4

EPOCH          = 2026-02-08T22:00:03.000096
MEAN_MOTION    = 15.53670644
ECCENTRICITY   = .00010065
INCLINATION    = 42.9997
RA_OF_ASC_NODE = 118.5983
ARG_OF_PERICENTER = 270.8286
MEAN_ANOMALY   = 26.8090

EPHEMERIS_TYPE = 0
CLASSIFICATION_TYPE = U
NORAD_CAT_ID   = 67495
ELEMENT_SET_NO = 999
REV_AT_EPOCH   = 444
BSTAR          = -.35013202E-1
MEAN_MOTION_DOT = -.2047257E-1
MEAN_MOTION_DDOT = 0

CCSDS_OMM_VERS = 2.0
CREATION_DATE  = 
ORIGINATOR     = 

OBJECT_NAME    = STARLINK-36534
OBJECT_ID      = 2026-012D
CENTER_NAME    = EARTH
REF_FRAME      = TEME
TIME_SYSTEM    = UTC
MEAN_ELEMENT_THEORY = SGP/SGP4

EPOCH          = 2026-02-08T22:00:03.000096
MEAN_MOTION    = 15.59361908
ECCENTRICITY   = .00015809
INCLINATION    = 42.9996
RA_OF_ASC_NODE = 118.3823
ARG_OF_PERICENTER = 276.0661
MEAN_ANOMALY   = 108.3147

EPHEMERIS_TYPE = 0
CLASSIFICATION_TYPE = U
NORAD_CAT_ID   = 67496
ELEMENT_SET_NO = 999
REV_AT_EPOCH   = 438
BSTAR          = -.2666427E-1
MEAN_MOTION_DOT = -.1909261E-1
MEAN_MOTION_DDOT = 0

CCSDS_OMM_VERS = 2.0
CREATION_DATE  = 
ORIGINATOR     = 

OBJECT_NAME    = STARLINK-36555
OBJECT_ID      = 2026-012E
CENTER_NAME    = EARTH
REF_FRAME      = TEME
TIME_SYSTEM    = UTC
MEAN_ELEMENT_THEORY = SGP/SGP4

EPOCH          = 2026-02-08T22:00:03.000096
MEAN_MOTION    = 15.59274223
ECCENTRICITY   = .0001644
INCLINATION    = 42.9995
RA_OF_ASC_NODE = 118.3981
ARG_OF_PERICENTER = 278.8878
MEAN_ANOMALY   = 99.2037

EPHEMERIS_TYPE = 0
CLASSIFICATION_TYPE = U
NORAD_CAT_ID   = 67497
ELEMENT_SET_NO = 999
REV_AT_EPOCH   = 444
BSTAR          = -.26765036E-1
MEAN_MOTION_DOT = -.1909972E-1
MEAN_MOTION_DDOT = 0

CCSDS_OMM_VERS = 2.0
CREATION_DATE  = 
ORIGINATOR     = 

OBJECT_NAME    = STARLINK-36081
OBJECT_ID      = 2026-012F
CENTER_NAME    = EARTH
REF_FRAME      = TEME
TIME_SYSTEM    = UTC
MEAN_ELEMENT_THEORY = SGP/SGP4

EPOCH          = 2026-02-08T22:00:03.000096
MEAN_MOTION    = 15.53609991
ECCENTRICITY   = .00017812
INCLINATION    = 42.9995
RA_OF_ASC_NODE = 118.5904
ARG_OF_PERICENTER = 270.5782
MEAN_ANOMALY   = 29.6277

EPHEMERIS_TYPE = 0
CLASSIFICATION_TYPE = U
NORAD_CAT_ID   = 67498
ELEMENT_SET_NO = 999
REV_AT_EPOCH   = 438
BSTAR          = -.5052099E-1
MEAN_MOTION_DOT = -.2877581E-1
MEAN_MOTION_DDOT = 0

CCSDS_OMM_VERS = 2.0
CREATION_DATE  = 
ORIGINATOR     = 

OBJECT_NAME    = STARLINK-36558
OBJECT_ID      = 2026-012G
CENTER_NAME    = EARTH
REF_FRAME      = TEME
TIME_SYSTEM    = UTC
MEAN_ELEMENT_THEORY = SGP/SGP4

EPOCH          = 2026-02-08T22:00:03.000096
MEAN_MOTION    = 15.53592308
ECCENTRICITY   = .00019734
INCLINATION    = 42.9997
RA_OF_ASC_NODE = 118.5839
ARG_OF_PERICENTER = 266.5834
MEAN_ANOMALY   = 36.1575

EPHEMERIS_TYPE = 0
CLASSIFICATION_TYPE = U
NORAD_CAT_ID   = 67499
ELEMENT_SET_NO = 999
REV_AT_EPOCH   = 444
BSTAR          = -.51025679E-1
MEAN_MOTION_DOT = -.2901028E-1
MEAN_MOTION_DDOT = 0

CCSDS_OMM_VERS = 2.0
CREATION_DATE  = 
ORIGINATOR     = 

OBJECT_NAME    = STARLINK-36557
OBJECT_ID      = 2026-012H
CENTER_NAME    = EARTH
REF_FRAME      = TEME
TIME_SYSTEM    = UTC
MEAN_ELEMENT_THEORY = SGP/SGP4

EPOCH          = 2026-02-08T22:00:03.000096
MEAN_MOTION    = 15.62664107
ECCENTRICITY   = .00012849
INCLINATION    = 42.9994
RA_OF_ASC_NODE = 118.2004
ARG_OF_PERICENTER = 282.4078
MEAN_ANOMALY   = 174.8350

EPHEMERIS_TYPE = 0
CLASSIFICATION_TYPE = U
NORAD_CAT_ID   = 67500
ELEMENT_SET_NO = 999
REV_AT_EPOCH   = 444
BSTAR          = -.23931782E-1
MEAN_MOTION_DOT = -.1944365E-1
MEAN_MOTION_DDOT = 0

CCSDS_OMM_VERS = 2.0
CREATION_DATE  = 
ORIGINATOR     = 

OBJECT_NAME    = STARLINK-36433
OBJECT_ID      = 2026-012J
CENTER_NAME    = EARTH
REF_FRAME      = TEME
TIME_SYSTEM    = UTC
MEAN_ELEMENT_THEORY = SGP/SGP4

EPOCH          = 2026-02-08T22:00:03.000096
MEAN_MOTION    = 15.63027236
ECCENTRICITY   = .00013346
INCLINATION    = 42.9996
RA_OF_ASC_NODE = 118.1750
ARG_OF_PERICENTER = 286.6152
MEAN_ANOMALY   = 180.8224

EPHEMERIS_TYPE = 0
CLASSIFICATION_TYPE = U
NORAD_CAT_ID   = 67501
ELEMENT_SET_NO = 999
REV_AT_EPOCH   = 444
BSTAR          = -.23588615E-1
MEAN_MOTION_DOT = -.1944311E-1
MEAN_MOTION_DDOT = 0

CCSDS_OMM_VERS = 2.0
CREATION_DATE  = 
ORIGINATOR     = 

OBJECT_NAME    = STARLINK-36554
OBJECT_ID      = 2026-012K
CENTER_NAME    = EARTH
REF_FRAME      = TEME
TIME_SYSTEM    = UTC
MEAN_ELEMENT_THEORY = SGP/SGP4

EPOCH          = 2026-02-08T22:00:03.000096
MEAN_MOTION    = 15.58268736
ECCENTRICITY   = .00016234
INCLINATION    = 42.9991
RA_OF_ASC_NODE = 118.3824
ARG_OF_PERICENTER = 277.3653
MEAN_ANOMALY   = 106.6749

EPHEMERIS_TYPE = 0
CLASSIFICATION_TYPE = U
NORAD_CAT_ID   = 67502
ELEMENT_SET_NO = 999
REV_AT_EPOCH   = 438
BSTAR          = -.27919476E-1
MEAN_MOTION_DOT = -.1916178E-1
MEAN_MOTION_DDOT = 0

CCSDS_OMM_VERS = 2.0
CREATION_DATE  = 
ORIGINATOR     = 

OBJECT_NAME    = STARLINK-36552
OBJECT_ID      = 2026-012L
CENTER_NAME    = EARTH
REF_FRAME      = TEME
TIME_SYSTEM    = UTC
MEAN_ELEMENT_THEORY = SGP/SGP4

EPOCH          = 2026-02-08T22:00:03.000096
MEAN_MOTION    = 15.64055035
ECCENTRICITY   = .00012136
INCLINATION    = 42.9996
RA_OF_ASC_NODE = 118.1123
ARG_OF_PERICENTER = 288.1061
MEAN_ANOMALY   = 204.3944

EPHEMERIS_TYPE = 0
CLASSIFICATION_TYPE = U
NORAD_CAT_ID   = 67503
ELEMENT_SET_NO = 999
REV_AT_EPOCH   = 444
BSTAR          = -.22890683E-1
MEAN_MOTION_DOT = -.1963044E-1
MEAN_MOTION_DDOT = 0

CCSDS_OMM_VERS = 2.0
CREATION_DATE  = 
ORIGINATOR     = 

OBJECT_NAME    = STARLINK-36512
OBJECT_ID      = 2026-012M
CENTER_NAME    = EARTH
REF_FRAME      = TEME
TIME_SYSTEM    = UTC
MEAN_ELEMENT_THEORY = SGP/SGP4

EPOCH          = 2026-02-08T22:00:03.000096
MEAN_MOTION    = 15.62043202
ECCENTRICITY   = .00012232
INCLINATION    = 42.9995
RA_OF_ASC_NODE = 118.1795
ARG_OF_PERICENTER = 283.9046
MEAN_ANOMALY   = 181.1501

EPHEMERIS_TYPE = 0
CLASSIFICATION_TYPE = U
NORAD_CAT_ID   = 67504
ELEMENT_SET_NO = 999
REV_AT_EPOCH   = 444
BSTAR          = -.24540451E-1
MEAN_MOTION_DOT = -.1945364E-1
MEAN_MOTION_DDOT = 0

