STARLINK-36551          
1 67493U 26012A   26039.91670139 -.01907142  00000+0 -25742-1 0  9992
2 67493  42.9993 118.3795 0001598 276.9824 108.9085 15.60239890  4448
STARLINK-36396          
1 67494U 26012B   26039.91670139 -.00209277  00000+0 -36404-2 0  9994
2 67494  43.0002 119.0945 0001571 344.5853 111.8406 15.50709509  4440
STARLINK-36550          
1 67495U 26012C   26039.91670139 -.02047257  00000+0 -35013-1 0  9999
2 67495  42.9997 118.5983 0001006 270.8286  26.8090 15.53670644  4446
STARLINK-36534          
1 67496U 26012D   26039.91670139 -.01909261  00000+0 -26664-1 0  9993
2 67496  42.9996 118.3823 0001580 276.0661 108.3147 15.59361908  4387
STARLINK-36555          
1 67497U 26012E   26039.91670139 -.01909972  00000+0 -26765-1 0  9995
2 67497  42.9995 118.3981 0001644 278.8878  99.2037 15.59274223  4449
STARLINK-36081          
1 67498U 26012F   26039.91670139 -.02877581  00000+0 -50521-1 0  9994
2 67498  42.9995 118.5904 0001781 270.5782  29.6277 15.53609991  4386
STARLINK-36558          
1 67499U 26012G   26039.91670139 -.02901028  00000+0 -51026-1 0  9990
2 67499  42.9997 118.5839 0001973 266.5834  36.1575 15.53592308  4446
STARLINK-36557          
1 67500U 26012H   26039.91670139 -.01944365  00000+0 -23932-1 0  9998
2 67500  42.9994 118.2004 0001284 282.4078 174.8350 15.62664107  4447
STARLINK-36433          
1 67501U 26012J   26039.91670139 -.01944311  00000+0 -23589-1 0  9998
2 67501  42.9996 118.1750 0001334 286.6152 180.8224 15.63027236  4446
STARLINK-36554          
1 67502U 26012K   26039.91670139 -.01916178  00000+0 -27919-1 0  9990
2 67502  42.9991 118.3824 0001623 277.3653 106.6749 15.58268736  4387
STARLINK-36552          
1 67503U 26012L   26039.91670139 -.01963044  00000+0 -22891-1 0  9999
2 67503  42.9996 118.1123 0001213 288.1061 204.3944 15.64055035  4444
STARLINK-36512          
1 67504U 26012M   26039.91670139 -.01945364  00000+0 -24540-1 0  9998
2 67504  42.9995 118.1795 0001223 283.9046 181.1501 15.62043202  4448
